STARLINK-30566          
1 58054U 23158D   23299.66667824 -.00730760  00000+0 -33680-2 0  9997
2 58054  42.9984  65.7594 0001735 285.7128  73.4178 15.84378526  3232
STARLINK-30544          
1 58055U 23158E   23299.66667824 -.00756156  00000+0 -34997-2 0  9997
2 58055  42.9983  65.7395 0001765 286.4303  80.5691 15.84351976  3180
STARLINK-30553          
1 58056U 23158F   23299.66667824 -.00762365  00000+0 -35319-2 0  9996
2 58056  42.9981  65.7403 0001549 276.0573  90.7598 15.84348390  3234
STARLINK-30541          
1 58057U 23158G   23299.66667824 -.00743324  00000+0 -34331-2 0  9994
2 58057  42.9983  65.7524 0001483 282.6454  79.4169 15.84367219  3238
STARLINK-30573          
1 58058U 23158H   23299.66667824 -.00754643  00000+0 -34902-2 0  9995
2 58058  42.9985  65.7473 0001663 272.5691  91.4711 15.84364069  3232
STARLINK-30582          
1 58059U 23158J   23299.66667824 -.00765173  00000+0 -35470-2 0  9997
2 58059  42.9985  65.7339 0001636 285.2152  84.0414 15.84342166  3239
STARLINK-30558          
1 58060U 23158K   23299.66667824 -.00706812  00000+0 -32458-2 0  9997
2 58060  42.9990  65.7810 0001452 281.0035  69.9517 15.84399142  3233
STARLINK-30579          
1 58061U 23158L   23299.66667824 -.00772859  00000+0 -35885-2 0  9999
2 58061  42.9985  65.7278 0001691 282.3630  89.5908 15.84326147  3233
STARLINK-30588          
1 58062U 23158M   23299.66667824 -.00806574  00000+0 -37683-2 0  9990
2 58062  42.9983  65.7061 0001693 274.4732 106.0343 15.84278764  3238
STARLINK-30585          
1 58063U 23158N   23299.66667824 -.00795156  00000+0 -37071-2 0  9995
2 58063  42.9986  65.7128 0001551 276.1784 101.7099 15.84296469  3237
STARLINK-30587          
1 58064U 23158P   23299.66667824 -.00782510  00000+0 -36385-2 0  9993
2 58064  42.9987  65.7235 0001636 271.2418 102.5748 15.84320207  3139
STARLINK-30576          
1 58065U 23158Q   23299.66667824 -.00720603  00000+0 -33143-2 0  9998
2 58065  42.9992  65.7746 0001913 264.7562  88.9369 15.84395747  3135
STARLINK-30571          
1 58066U 23158R   23299.66667824 -.00726590  00000+0 -33467-2 0  9999
2 58066  42.9993  65.7676 0001569 279.5866  76.8949 15.84382903  3238
STARLINK-30567          
1 58067U 23158S   23299.66667824 -.00783192  00000+0 -36437-2 0  9991
2 58067  42.9994  65.7203 0001793 283.6751  91.8757 15.84308897  3238
STARLINK-30569          
1 58068U 23158T   23299.66667824 -.00809952  00000+0 -37872-2 0  9999
2 58068  42.9987  65.7027 0001580 277.2484 104.7494 15.84270869  3230
STARLINK-30480          
1 58069U 23158U   23299.66667824 -.00821264  00000+0 -38500-2 0  9999
2 58069  42.9988  65.6951 0001388 281.4639 103.4138 15.84246484  3239
STARLINK-30532          
1 58070U 23158V   23299.66667824 -.00831457  00000+0 -39050-2 0  9997
2 58070  42.9986  65.6896 0001691 275.6677 111.4886 15.84229925  3231
STARLINK-30513          
1 58071U 23158W   23299.66667824 -.00831591  00000+0 -39069-2 0  9997
2 58071  42.9983  65.6872 0001363 281.9269 106.1925 15.84226539  3239
STARLINK-30506          
1 58072U 23158X   23299.66667824 -.00841118  00000+0 -39597-2 0  9990
2 58072  42.9985  65.6808 0001502 281.8560 108.6368 15.84206166  3073
YUNHAI 1-04             
1 58073U 23159A   23299.17256142  .00009271  00000+0  33862-2 0  9998
2 58073  98.5906 322.0447 0000035 330.0364 119.9515 14.33198798  1590
CZ-2D R/B               
1 58074U 23159B   23293.89697509  .00000159  00000+0  76547-4 0  9993
2 58074  98.5175 316.5814 0098745 265.4654  93.5244 14.28639726   841
STARLINK-30604          
1 58075U 23160A   23299.66667824 -.00751724  00000+0 -29533-2 0  9998
2 58075  42.9996 119.5138 0001976 268.4881 151.3985 15.87672038  2555
STARLINK-30500          
1 58076U 23160B   23299.66667824 -.00749501  00000+0 -29445-2 0  9991
2 58076  42.9994 119.5137 0001886 271.0715 149.0086 15.87668268  2555
STARLINK-30613          
1 58077U 23160C   23299.66667824 -.00757878  00000+0 -29742-2 0  9998
2 58077  42.9995 119.5083 0001651 275.4414 146.6919 15.87710957  2226
STARLINK-30597          
1 58078U 23160D   23299.66667824 -.00767031  00000+0 -30073-2 0  9990
2 58078  42.9999 119.5036 0001681 272.5475 151.4784 15.87750193  2597
STARLINK-30598          
1 58079U 23160E   23299.66667824 -.00776156  00000+0 -30384-2 0  9994
2 58079  42.9996 119.4975 0001770 272.4096 154.0980 15.87800744  2554
STARLINK-30603          
1 58080U 23160F   23299.66667824 -.00778842  00000+0 -30467-2 0  9992
2 58080  43.0000 119.4943 0001405 276.3570 151.4976 15.87824615  2553
STARLINK-30602          
1 58081U 23160G   23299.66667824 -.00800498  00000+0 -31261-2 0  9999
2 58081  43.0000 119.4837 0001583 269.1851 162.6473 15.87906054  2593
STARLINK-30610          
1 58082U 23160H   23299.66667824 -.00788784  00000+0 -30819-2 0  9991
2 58082  43.0000 119.4886 0001836 277.4837 152.5012 15.87867128  2590
STARLINK-30551          
1 58083U 23160J   23299.66667824 -.00807876  00000+0 -31503-2 0  9997
2 58083  42.9999 119.4779 0001759 273.3554 160.8232 15.87950275  2594
