OBJECT_NAME,OBJECT_ID,EPOCH,MEAN_MOTION,ECCENTRICITY,INCLINATION,RA_OF_ASC_NODE,ARG_OF_PERICENTER,MEAN_ANOMALY,EPHEMERIS_TYPE,CLASSIFICATION_TYPE,NORAD_CAT_ID,ELEMENT_SET_NO,REV_AT_EPOCH,BSTAR,MEAN_MOTION_DOT,MEAN_MOTION_DDOT
STARLINK-30566,2023-158D,2023-10-26T16:00:00.999936,15.84378526,.0001735,42.9984,65.7594,285.7128,73.4178,0,U,58054,999,323,-.3368E-2,-.73076E-2,0
STARLINK-30544,2023-158E,2023-10-26T16:00:00.999936,15.84351976,.0001765,42.9983,65.7395,286.4303,80.5691,0,U,58055,999,318,-.34997E-2,-.756156E-2,0
STARLINK-30553,2023-158F,2023-10-26T16:00:00.999936,15.84348390,.0001549,42.9981,65.7403,276.0573,90.7598,0,U,58056,999,323,-.35319E-2,-.762365E-2,0
STARLINK-30541,2023-158G,2023-10-26T16:00:00.999936,15.84367219,.0001483,42.9983,65.7524,282.6454,79.4169,0,U,58057,999,323,-.34331E-2,-.743324E-2,0
STARLINK-30573,2023-158H,2023-10-26T16:00:00.999936,15.84364069,.0001663,42.9985,65.7473,272.5691,91.4711,0,U,58058,999,323,-.34902E-2,-.754643E-2,0
STARLINK-30582,2023-158J,2023-10-26T16:00:00.999936,15.84342166,.0001636,42.9985,65.7339,285.2152,84.0414,0,U,58059,999,323,-.3547E-2,-.765173E-2,0
STARLINK-30558,2023-158K,2023-10-26T16:00:00.999936,15.84399142,.0001452,42.9990,65.7810,281.0035,69.9517,0,U,58060,999,323,-.32458E-2,-.706812E-2,0
STARLINK-30579,2023-158L,2023-10-26T16:00:00.999936,15.84326147,.0001691,42.9985,65.7278,282.3630,89.5908,0,U,58061,999,323,-.35885E-2,-.772859E-2,0
STARLINK-30588,2023-158M,2023-10-26T16:00:00.999936,15.84278764,.0001693,42.9983,65.7061,274.4732,106.0343,0,U,58062,999,323,-.37683E-2,-.806574E-2,0
STARLINK-30585,2023-158N,2023-10-26T16:00:00.999936,15.84296469,.0001551,42.9986,65.7128,276.1784,101.7099,0,U,58063,999,323,-.37071E-2,-.795156E-2,0
STARLINK-30587,2023-158P,2023-10-26T16:00:00.999936,15.84320207,.0001636,42.9987,65.7235,271.2418,102.5748,0,U,58064,999,313,-.36385E-2,-.78251E-2,0
STARLINK-30576,2023-158Q,2023-10-26T16:00:00.999936,15.84395747,.0001913,42.9992,65.7746,264.7562,88.9369,0,U,58065,999,313,-.33143E-2,-.720603E-2,0
STARLINK-30571,2023-158R,2023-10-26T16:00:00.999936,15.84382903,.0001569,42.9993,65.7676,279.5866,76.8949,0,U,58066,999,323,-.33467E-2,-.72659E-2,0
STARLINK-30567,2023-158S,2023-10-26T16:00:00.999936,15.84308897,.0001793,42.9994,65.7203,283.6751,91.8757,0,U,58067,999,323,-.36437E-2,-.783192E-2,0
STARLINK-30569,2023-158T,2023-10-26T16:00:00.999936,15.84270869,.000158,42.9987,65.7027,277.2484,104.7494,0,U,58068,999,323,-.37872E-2,-.809952E-2,0
STARLINK-30480,2023-158U,2023-10-26T16:00:00.999936,15.84246484,.0001388,42.9988,65.6951,281.4639,103.4138,0,U,58069,999,323,-.385E-2,-.821264E-2,0
STARLINK-30532,2023-158V,2023-10-26T16:00:00.999936,15.84229925,.0001691,42.9986,65.6896,275.6677,111.4886,0,U,58070,999,323,-.3905E-2,-.831457E-2,0
STARLINK-30513,2023-158W,2023-10-26T16:00:00.999936,15.84226539,.0001363,42.9983,65.6872,281.9269,106.1925,0,U,58071,999,323,-.39069E-2,-.831591E-2,0
STARLINK-30506,2023-158X,2023-10-26T16:00:00.999936,15.84206166,.0001502,42.9985,65.6808,281.8560,108.6368,0,U,58072,999,307,-.39597E-2,-.841118E-2,0
YUNHAI 1-04,2023-159A,2023-10-26T04:08:29.306688,14.33198798,.0000035,98.5906,322.0447,330.0364,119.9515,0,U,58073,999,159,.33862E-2,.9271E-4,0
CZ-2D R/B,2023-159B,2023-10-20T21:31:38.647776,14.28639726,.0098745,98.5175,316.5814,265.4654,93.5244,0,U,58074,999,84,.76547E-4,.159E-5,0
STARLINK-30604,2023-160A,2023-10-26T16:00:00.999936,15.87672038,.0001976,42.9996,119.5138,268.4881,151.3985,0,U,58075,999,255,-.29533E-2,-.751724E-2,0
STARLINK-30500,2023-160B,2023-10-26T16:00:00.999936,15.87668268,.0001886,42.9994,119.5137,271.0715,149.0086,0,U,58076,999,255,-.29445E-2,-.749501E-2,0
STARLINK-30613,2023-160C,2023-10-26T16:00:00.999936,15.87710957,.0001651,42.9995,119.5083,275.4414,146.6919,0,U,58077,999,222,-.29742E-2,-.757878E-2,0
STARLINK-30597,2023-160D,2023-10-26T16:00:00.999936,15.87750193,.0001681,42.9999,119.5036,272.5475,151.4784,0,U,58078,999,259,-.30073E-2,-.767031E-2,0
STARLINK-30598,2023-160E,2023-10-26T16:00:00.999936,15.87800744,.000177,42.9996,119.4975,272.4096,154.0980,0,U,58079,999,255,-.30384E-2,-.776156E-2,0
STARLINK-30603,2023-160F,2023-10-26T16:00:00.999936,15.87824615,.0001405,43.0000,119.4943,276.3570,151.4976,0,U,58080,999,255,-.30467E-2,-.778842E-2,0
STARLINK-30602,2023-160G,2023-10-26T16:00:00.999936,15.87906054,.0001583,43.0000,119.4837,269.1851,162.6473,0,U,58081,999,259,-.31261E-2,-.800498E-2,0
STARLINK-30610,2023-160H,2023-10-26T16:00:00.999936,15.87867128,.0001836,43.0000,119.4886,277.4837,152.5012,0,U,58082,999,259,-.30819E-2,-.788784E-2,0
STARLINK-30551,2023-160J,2023-10-26T16:00:00.999936,15.87950275,.0001759,42.9999,119.4779,273.3554,160.8232,0,U,58083,999,259,-.31503E-2,-.807876E-2,0
